[{"OBJECT_NAME":"STARLINK-5614","OBJECT_ID":"2023-028R","EPOCH":"2026-03-09T21:10:35.389056","MEAN_MOTION":14.98330958,"ECCENTRICITY":0.00025082,"INCLINATION":69.9993,"RA_OF_ASC_NODE":243.7817,"ARG_OF_PERICENTER":270.1984,"MEAN_ANOMALY":89.8888,"EPHEMERIS_TYPE":0,"CLASSIFICATION_TYPE":"U","NORAD_CAT_ID":55756,"ELEMENT_SET_NO":999,"REV_AT_EPOCH":16607,"BSTAR":6.195287e-6,"MEAN_MOTION_DOT":-1.9e-7,"MEAN_MOTION_DDOT":0},{"OBJECT_NAME":"CZ-4C R\/B","OBJECT_ID":"2023-136B","EPOCH":"2026-03-09T22:23:17.511648","MEAN_MOTION":15.02951771,"ECCENTRICITY":0.01088591,"INCLINATION":98.3028,"RA_OF_ASC_NODE":56.8789,"ARG_OF_PERICENTER":268.7974,"MEAN_ANOMALY":90.0776,"EPHEMERIS_TYPE":0,"CLASSIFICATION_TYPE":"U","NORAD_CAT_ID":57798,"ELEMENT_SET_NO":999,"REV_AT_EPOCH":13700,"BSTAR":0.0002043348,"MEAN_MOTION_DOT":3.042e-5,"MEAN_MOTION_DDOT":0}]
